     2.100          NAVIGATION                              RINEX VERSION / TYPE
fic2rin                                 02/21/2015 00:36:18 PGM / RUN BY / DATE
                                                            END OF HEADER
29 15  2 20 16  0  0.0  .593306962401D-03  .227373675443D-11  .000000000000D+00
     .500000000000D+01  .612500000000D+01  .479805700119D-08 -.108635664732D+01
     .355765223503D-06  .131897209212D-02  .236183404922D-05  .515354358673D+04
     .489600000000D+06 -.707805156708D-07 -.117495472736D+01  .223517417908D-07
     .971946031694D+00  .340437500000D+03 -.847135606050D+00 -.852249785339D-08
     .164649715464D-09  .100000000000D+01  .183200000000D+04  .000000000000D+00
     .240000000000D+01  .000000000000D+00 -.977888703346D-08  .500000000000D+01
     .482406000000D+06  .400000000000D+01
30 15  2 20 16  0  0.0 -.838930718601D-04  .159161572810D-11  .000000000000D+00
     .820000000000D+02 -.603437500000D+02  .442947021950D-08 -.316379094619D+00
    -.333227217197D-05  .101388187613D-02  .116303563118D-04  .515377230263D+04
     .489600000000D+06  .372529029846D-07  .303606879862D+01  .186264514923D-08
     .957161597257D+00  .154406250000D+03  .293585552793D+01 -.801140513575D-08
    -.658956019592D-09  .100000000000D+01  .183200000000D+04  .000000000000D+00
     .240000000000D+01  .000000000000D+00  .325962901115D-08  .820000000000D+02
     .482406000000D+06  .400000000000D+01
31 15  2 20 16  0  0.0  .322863925248D-03 -.909494701773D-12  .000000000000D+00
     .450000000000D+02 -.757812500000D+02  .413588656199D-08 -.532985090111D+00
    -.401772558689D-05  .829069816973D-02  .104326754808D-04  .515373222542D+04
     .489600000000D+06 -.204890966415D-07  .299273555737D+01 -.242143869400D-06
     .976341322249D+00  .189125000000D+03 -.545790819590D+00 -.797211778499D-08
    -.632526347261D-09  .100000000000D+01  .183200000000D+04  .000000000000D+00
     .240000000000D+01  .000000000000D+00 -.135041773319D-07  .450000000000D+02
     .482406000000D+06  .400000000000D+01
32 15  2 20 16  0  0.0 -.219063367695D-03  .909494701773D-11  .000000000000D+00
     .780000000000D+02  .654687500000D+02  .494592030315D-08  .740722792820D-01
     .351481139660D-05  .113152061822D-01  .109262764454D-04  .515357949638D+04
     .489600000000D+06  .165775418282D-06  .948403014552D+00 -.428408384323D-07
     .947177525152D+00  .165718750000D+03  .208555064298D-01 -.837606318237D-08
     .532879339421D-09  .100000000000D+01  .183200000000D+04  .000000000000D+00
     .240000000000D+01  .000000000000D+00 -.372529029846D-08  .780000000000D+02
     .482406000000D+06  .400000000000D+01
11 15  2 20 15 59 44.0 -.559182837605D-03 -.261479726760D-11  .000000000000D+00
     .110000000000D+02 -.100687500000D+03  .644562562904D-08 -.349555656990D+00
    -.531971454620D-05  .156182394130D-01  .555999577045D-05  .515372788239D+04
     .489584000000D+06 -.173225998878D-06 -.518307960716D+00  .856816768646D-07
     .892619003336D+00  .239218750000D+03  .138343890011D+01 -.951361056578D-08
    -.335371112410D-09  .100000000000D+01  .183200000000D+04  .000000000000D+00
     .240000000000D+01  .000000000000D+00 -.121071934700D-07  .110000000000D+02
     .485106000000D+06  .400000000000D+01
18 15  2 20 15 59 44.0  .380971468985D-03  .272848410532D-11  .000000000000D+00
     .000000000000D+00  .552812500000D+02  .510164107526D-08 -.245018109439D+01
     .277347862720D-05  .157411480322D-01  .128820538521D-04  .515376933289D+04
     .489584000000D+06  .270083546638D-06  .848459817551D+00 -.745058059692D-08
     .925383019883D+00  .106593750000D+03 -.198977610273D+01 -.809712299196D-08
     .620740142033D-09  .100000000000D+01  .183200000000D+04  .000000000000D+00
     .240000000000D+01  .000000000000D+00 -.111758708954D-07  .000000000000D+00
     .485346000000D+06  .400000000000D+01
25 15  2 20 15 59 44.0 -.521028414369D-05 -.284217094304D-11  .000000000000D+00
     .700000000000D+01  .790000000000D+02  .379515808357D-08 -.158228237397D+01
     .410154461861D-05  .422461912967D-02  .126771628857D-04  .515372557831D+04
     .489584000000D+06  .838190317154D-07 -.227677766207D+01 -.108033418655D-06
     .977923626147D+00  .144625000000D+03  .661187070421D+00 -.770746390395D-08
     .394659296287D-09  .100000000000D+01  .183200000000D+04  .000000000000D+00
     .240000000000D+01  .000000000000D+00  .512227416039D-08  .700000000000D+01
     .487206000000D+06  .400000000000D+01
11 15  2 20 17 59 44.0 -.559201929718D-03 -.261479726760D-11  .000000000000D+00
     .570000000000D+02 -.101625000000D+03  .651955728002D-08  .700631297569D+00
    -.543892383575D-05  .156159353210D-01  .473298132420D-05  .515372337532D+04
     .496784000000D+06 -.163912773132D-06 -.518375733321D+00 -.912696123123D-07
     .892616106758D+00  .255562500000D+03  .138341478830D+01 -.951646782765D-08
    -.473948313278D-09  .100000000000D+01  .183200000000D+04  .000000000000D+00
     .240000000000D+01  .000000000000D+00 -.121071934700D-07  .570000000000D+02
     .489606000000D+06  .400000000000D+01
18 15  2 20 17 59 44.0  .380991026759D-03  .272848410532D-11  .000000000000D+00
     .700000000000D+01  .717812500000D+02  .523021785957D-08 -.140018290454D+01
     .391528010368D-05  .157421481563D-01  .128280371428D-04  .515376509857D+04
     .496784000000D+06  .314787030220D-06  .848401934272D+00  .324100255966D-06
     .925386476758D+00  .109906250000D+03 -.198964629655D+01 -.832141804903D-08
     .510735559900D-09  .100000000000D+01  .183200000000D+04  .000000000000D+00
     .240000000000D+01  .000000000000D+00 -.111758708954D-07  .700000000000D+01
     .489606000000D+06  .400000000000D+01
25 15  2 20 17 59 44.0 -.523123890162D-05 -.284217094304D-11  .000000000000D+00
     .100000000000D+02  .850937500000D+02  .394802159380D-08 -.532254833590D+00
     .429153442383D-05  .422480143607D-02  .124387443066D-04  .515372494125D+04
     .496784000000D+06  .577419996262D-07 -.227683331586D+01  .106170773506D-06
     .977925369946D+00  .147156250000D+03  .661304488615D+00 -.789354308347D-08
     .316084594764D-09  .100000000000D+01  .183200000000D+04  .000000000000D+00
     .240000000000D+01  .000000000000D+00  .512227416039D-08  .100000000000D+02
     .489606000000D+06  .400000000000D+01
 1 15  2 20 18  0  0.0 -.879494473338D-05  .454747350886D-12  .000000000000D+00
     .290000000000D+02 -.111125000000D+03  .448411535283D-08  .120997439682D+01
    -.587664544582D-05  .387919077184D-02  .933744013309D-05  .515367457008D+04
     .496800000000D+06 -.391155481339D-07 -.174744461528D+00  .186264514923D-08
     .962287353531D+00  .200625000000D+03  .405037318150D+00 -.815283959849D-08
    -.444304221340D-09  .100000000000D+01  .183200000000D+04  .000000000000D+00
     .240000000000D+01  .000000000000D+00  .558793544769D-08  .290000000000D+02
     .489606000000D+06  .400000000000D+01
 2 15  2 20 18  0  0.0  .549144111574D-03  .227373675443D-11  .000000000000D+00
     .790000000000D+02 -.110843750000D+03  .490841874106D-08  .179098598736D+01
    -.573322176933D-05  .144111890113D-01  .997073948383D-05  .515377707291D+04
     .496800000000D+06 -.396743416786D-06 -.210203816861D+00 -.651925802231D-07
     .940868917687D+00  .177250000000D+03 -.231731386101D+01 -.839427822681D-08
    -.423589072757D-09  .100000000000D+01  .183200000000D+04  .000000000000D+00
     .240000000000D+01  .000000000000D+00 -.204890966415D-07  .790000000000D+02
     .489606000000D+06  .400000000000D+01
 3 15  2 20 18  0  0.0  .219596549869D-03  .200088834390D-10  .000000000000D+00
     .400000000000D+02  .477500000000D+02  .450197323954D-08 -.277449220252D+01
     .251457095146D-05  .951999449171D-03  .126045197248D-04  .515374910355D+04
     .496800000000D+06  .149011611938D-07  .865273493451D+00 -.316649675369D-07
     .959533021110D+00  .140093750000D+03 -.295357527238D+01 -.795283126734D-08
     .490734726785D-09  .100000000000D+01  .183200000000D+04  .000000000000D+00
     .240000000000D+01  .000000000000D+00  .139698386192D-08  .400000000000D+02
     .489606000000D+06  .400000000000D+01
 4 15  2 20 18  0  0.0 -.754604116082D-05 -.682121026330D-12  .000000000000D+00
     .470000000000D+02 -.111375000000D+03  .505985362036D-08  .101124499400D+01
    -.589527189732D-05  .110438325210D-01  .903569161892D-05  .515373083305D+04
     .496800000000D+06 -.124797224998D-06 -.194813969870D+00 -.298023223877D-07
     .939916326876D+00  .195875000000D+03  .105276632637D+01 -.858464329914D-08
    -.514664294977D-09  .100000000000D+01  .183200000000D+04  .000000000000D+00
     .240000000000D+01  .000000000000D+00 -.651925802231D-08  .470000000000D+02
     .489606000000D+06  .400000000000D+01
 5 15  2 20 18  0  0.0 -.276481267065D-03  .500222085975D-11  .000000000000D+00
     .580000000000D+02  .685000000000D+02  .476305554324D-08 -.213957732678D+01
     .326707959175D-05  .402654719073D-02  .123400241137D-04  .515378126717D+04
     .496800000000D+06 -.130385160446D-07  .859495340082D+00 -.391155481339D-07
     .946806937281D+00  .134281250000D+03  .418090826453D+00 -.810640909305D-08
     .541451125041D-09  .100000000000D+01  .183200000000D+04  .000000000000D+00
     .240000000000D+01  .000000000000D+00 -.107102096081D-07  .580000000000D+02
     .489606000000D+06  .400000000000D+01
 6 15  2 20 18  0  0.0  .876877456903D-04  .111413100967D-10  .000000000000D+00
     .380000000000D+02 -.103687500000D+03  .433518057767D-08 -.257898100443D+01
    -.528804957867D-05  .349634443410D-03  .983104109764D-05  .515370686340D+04
     .496800000000D+06 -.745058059692D-08 -.183269588840D+00  .186264514923D-07
     .962181278804D+00  .189281250000D+03  .268660934020D+01 -.804854954011D-08
    -.384658879729D-09  .100000000000D+01  .183200000000D+04  .000000000000D+00
     .240000000000D+01  .000000000000D+00  .465661287308D-08  .380000000000D+02
     .489606000000D+06  .400000000000D+01
